[{"OBJECT_NAME":"TEVEL2-3","OBJECT_ID":"2025-052J","EPOCH":"2026-03-09T15:29:22.754400","MEAN_MOTION":15.30377031,"ECCENTRICITY":0.0004761,"INCLINATION":97.3994,"RA_OF_ASC_NODE":324.7775,"ARG_OF_PERICENTER":105.7353,"MEAN_ANOMALY":254.4413,"EPHEMERIS_TYPE":0,"CLASSIFICATION_TYPE":"U","NORAD_CAT_ID":63218,"ELEMENT_SET_NO":999,"REV_AT_EPOCH":5485,"BSTAR":0.00069446,"MEAN_MOTION_DOT":0.00020365,"MEAN_MOTION_DDOT":0},{"OBJECT_NAME":"STARLINK-35667","OBJECT_ID":"2025-257W","EPOCH":"2026-03-09T16:52:41.915424","MEAN_MOTION":15.30198713,"ECCENTRICITY":9.768e-5,"INCLINATION":53.1578,"RA_OF_ASC_NODE":217.0941,"ARG_OF_PERICENTER":79.8419,"MEAN_ANOMALY":280.2692,"EPHEMERIS_TYPE":0,"CLASSIFICATION_TYPE":"U","NORAD_CAT_ID":66400,"ELEMENT_SET_NO":999,"REV_AT_EPOCH":1973,"BSTAR":0.0012346287,"MEAN_MOTION_DOT":0.00036385,"MEAN_MOTION_DDOT":0}]
